{
  "type": "FeatureCollection",
  "features": [
    {
      "type": "Feature",
      "properties": {
        "norad_id": 44334,
        "name": "EUTELSAT 7C",
        "group": "eutelsat",
        "lat": -0.0212044082832177,
        "lon": -176.00144345354622,
        "alt_km": 35776.78246595821,
        "timestamp": "2025-12-03T06:58:42.912742+00:00",
        "meta_object_name": "EUTELSAT 7C",
        "meta_object_id": "2019-034B",
        "meta_epoch": "2025-12-02T13:49:02.339328",
        "meta_mean_motion": 1.00271324,
        "meta_eccentricity": 0.00034615,
        "meta_inclination": 0.0771,
        "meta_ra_of_asc_node": 180.865,
        "meta_arg_of_pericenter": 53.2233,
        "meta_mean_anomaly": 51.8439,
        "meta_ephemeris_type": 0,
        "meta_classification_type": "U",
        "meta_norad_cat_id": 44334,
        "meta_element_set_no": 999,
        "meta_rev_at_epoch": 486,
        "meta_bstar": 0,
        "meta_mean_motion_dot": 6.9e-07,
        "meta_mean_motion_ddot": 0,
        "tle_line1": "1 44334U 19034B   25336.57572152  .00000069  00000+0  00000+0 0  9991",
        "tle_line2": "2 44334   0.0771 180.8650 0003461  53.2233  51.8439  1.00271324  4863"
      },
      "geometry": {
        "type": "Point",
        "coordinates": [
          -176.00144345354622,
          -0.0212044082832177
        ]
      }
    },
    {
      "type": "Feature",
      "properties": {
        "norad_id": 44624,
        "name": "EUTELSAT 5 WEST B",
        "group": "eutelsat",
        "lat": -0.04453836858056499,
        "lon": 172.00776110713312,
        "alt_km": 35783.29997299935,
        "timestamp": "2025-12-03T06:58:42.912754+00:00",
        "meta_object_name": "EUTELSAT 5 WEST B",
        "meta_object_id": "2019-067A",
        "meta_epoch": "2025-12-02T18:48:38.705184",
        "meta_mean_motion": 1.00272705,
        "meta_eccentricity": 0.000367,
        "meta_inclination": 0.0722,
        "meta_ra_of_asc_node": 327.0579,
        "meta_arg_of_pericenter": 285.6861,
        "meta_mean_anomaly": 96.3127,
        "meta_ephemeris_type": 0,
        "meta_classification_type": "U",
        "meta_norad_cat_id": 44624,
        "meta_element_set_no": 999,
        "meta_rev_at_epoch": 2246,
        "meta_bstar": 0,
        "meta_mean_motion_dot": -2.2e-07,
        "meta_mean_motion_ddot": 0,
        "tle_line1": "1 44624U 19067A   25336.78378131 -.00000022  00000+0  00000+0 0  9993",
        "tle_line2": "2 44624   0.0722 327.0579 0003670 285.6861  96.3127  1.00272705 22464"
      },
      "geometry": {
        "type": "Point",
        "coordinates": [
          172.00776110713312,
          -0.04453836858056499
        ]
      }
    },
    {
      "type": "Feature",
      "properties": {
        "norad_id": 45027,
        "name": "EUTELSAT KONNECT",
        "group": "eutelsat",
        "lat": 0.04419501176178557,
        "lon": -175.78645796778017,
        "alt_km": 35785.56560570544,
        "timestamp": "2025-12-03T06:58:42.912766+00:00",
        "meta_object_name": "EUTELSAT KONNECT",
        "meta_object_id": "2020-005B",
        "meta_epoch": "2025-12-02T18:40:38.741952",
        "meta_mean_motion": 1.00272455,
        "meta_eccentricity": 0.0001657,
        "meta_inclination": 0.0677,
        "meta_ra_of_asc_node": 100.3111,
        "meta_arg_of_pericenter": 171.7802,
        "meta_mean_anomaly": 87.1432,
        "meta_ephemeris_type": 0,
        "meta_classification_type": "U",
        "meta_norad_cat_id": 45027,
        "meta_element_set_no": 999,
        "meta_rev_at_epoch": 2235,
        "meta_bstar": 0,
        "meta_mean_motion_dot": 7e-07,
        "meta_mean_motion_ddot": 0,
        "tle_line1": "1 45027U 20005B   25336.77822618  .00000070  00000+0  00000+0 0  9990",
        "tle_line2": "2 45027   0.0677 100.3111 0001657 171.7802  87.1432  1.00272455 22355"
      },
      "geometry": {
        "type": "Point",
        "coordinates": [
          -175.78645796778017,
          0.04419501176178557
        ]
      }
    },
    {
      "type": "Feature",
      "properties": {
        "norad_id": 49056,
        "name": "EUTELSAT QUANTUM",
        "group": "eutelsat",
        "lat": -0.02738587224883117,
        "lon": -135.28333537698535,
        "alt_km": 35774.09214382644,
        "timestamp": "2025-12-03T06:58:42.912778+00:00",
        "meta_object_name": "EUTELSAT QUANTUM",
        "meta_object_id": "2021-069B",
        "meta_epoch": "2025-12-02T19:15:38.813184",
        "meta_mean_motion": 1.00271493,
        "meta_eccentricity": 0.0003737,
        "meta_inclination": 0.0166,
        "meta_ra_of_asc_node": 9.4688,
        "meta_arg_of_pericenter": 255.9868,
        "meta_mean_anomaly": 143.067,
        "meta_ephemeris_type": 0,
        "meta_classification_type": "U",
        "meta_norad_cat_id": 49056,
        "meta_element_set_no": 999,
        "meta_rev_at_epoch": 1595,
        "meta_bstar": 0,
        "meta_mean_motion_dot": 1.46e-06,
        "meta_mean_motion_ddot": 0,
        "tle_line1": "1 49056U 21069B   25336.80253256  .00000146  00000+0  00000+0 0  9991",
        "tle_line2": "2 49056   0.0166   9.4688 0003737 255.9868 143.0670  1.00271493 15955"
      },
      "geometry": {
        "type": "Point",
        "coordinates": [
          -135.28333537698535,
          -0.02738587224883117
        ]
      }
    },
    {
      "type": "Feature",
      "properties": {
        "norad_id": 53765,
        "name": "EUTELSAT KONNECT VHTS",
        "group": "eutelsat",
        "lat": 0.03487622926910431,
        "lon": 179.70020314661383,
        "alt_km": 35779.367533394194,
        "timestamp": "2025-12-03T06:58:42.912789+00:00",
        "meta_object_name": "EUTELSAT KONNECT VHTS",
        "meta_object_id": "2022-110A",
        "meta_epoch": "2025-12-02T18:48:38.705184",
        "meta_mean_motion": 1.00268775,
        "meta_eccentricity": 0.0002757,
        "meta_inclination": 0.059,
        "meta_ra_of_asc_node": 107.6754,
        "meta_arg_of_pericenter": 121.6991,
        "meta_mean_anomaly": 127.364,
        "meta_ephemeris_type": 0,
        "meta_classification_type": "U",
        "meta_norad_cat_id": 53765,
        "meta_element_set_no": 999,
        "meta_rev_at_epoch": 485,
        "meta_bstar": 0,
        "meta_mean_motion_dot": 3.7e-07,
        "meta_mean_motion_ddot": 0,
        "tle_line1": "1 53765U 22110A   25336.78378131  .00000037  00000+0  00000+0 0  9997",
        "tle_line2": "2 53765   0.0590 107.6754 0002757 121.6991 127.3640  1.00268775  4858"
      },
      "geometry": {
        "type": "Point",
        "coordinates": [
          179.70020314661383,
          0.03487622926910431
        ]
      }
    },
    {
      "type": "Feature",
      "properties": {
        "norad_id": 54048,
        "name": "EUTELSAT HOTBIRD 13F",
        "group": "eutelsat",
        "lat": -0.07344843358451243,
        "lon": -169.96556480591056,
        "alt_km": 35793.96536526025,
        "timestamp": "2025-12-03T06:58:42.912801+00:00",
        "meta_object_name": "EUTELSAT HOTBIRD 13F",
        "meta_object_id": "2022-134A",
        "meta_epoch": "2025-12-02T17:16:16.375008",
        "meta_mean_motion": 1.00271339,
        "meta_eccentricity": 0.0001918,
        "meta_inclination": 0.0545,
        "meta_ra_of_asc_node": 288.9977,
        "meta_arg_of_pericenter": 66.468,
        "meta_mean_anomaly": 348.4275,
        "meta_ephemeris_type": 0,
        "meta_classification_type": "U",
        "meta_norad_cat_id": 54048,
        "meta_element_set_no": 999,
        "meta_rev_at_epoch": 1140,
        "meta_bstar": 0,
        "meta_mean_motion_dot": 1.07e-06,
        "meta_mean_motion_ddot": 0,
        "tle_line1": "1 54048U 22134A   25336.71963397  .00000107  00000+0  00000+0 0  9993",
        "tle_line2": "2 54048   0.0545 288.9977 0001918  66.4680 348.4275  1.00271339 11401"
      },
      "geometry": {
        "type": "Point",
        "coordinates": [
          -169.96556480591056,
          -0.07344843358451243
        ]
      }
    },
    {
      "type": "Feature",
      "properties": {
        "norad_id": 54225,
        "name": "EUTELSAT HOTBIRD 13G",
        "group": "eutelsat",
        "lat": -0.050356574855371226,
        "lon": -169.96427831828487,
        "alt_km": 35777.33773581576,
        "timestamp": "2025-12-03T06:58:42.912813+00:00",
        "meta_object_name": "EUTELSAT HOTBIRD 13G",
        "meta_object_id": "2022-146A",
        "meta_epoch": "2025-12-02T17:16:16.375008",
        "meta_mean_motion": 1.00271061,
        "meta_eccentricity": 0.0002127,
        "meta_inclination": 0.048,
        "meta_ra_of_asc_node": 239.1654,
        "meta_arg_of_pericenter": 305.0955,
        "meta_mean_anomaly": 159.6263,
        "meta_ephemeris_type": 0,
        "meta_classification_type": "U",
        "meta_norad_cat_id": 54225,
        "meta_element_set_no": 999,
        "meta_rev_at_epoch": 549,
        "meta_bstar": 0,
        "meta_mean_motion_dot": 1.07e-06,
        "meta_mean_motion_ddot": 0,
        "tle_line1": "1 54225U 22146A   25336.71963397  .00000107  00000+0  00000+0 0  9993",
        "tle_line2": "2 54225   0.0480 239.1654 0002127 305.0955 159.6263  1.00271061  5499"
      },
      "geometry": {
        "type": "Point",
        "coordinates": [
          -169.96427831828487,
          -0.050356574855371226
        ]
      }
    }
  ]
}